{
    "links": {
        "self": "http://www.neowsapp.com/rest/v1/neo/3826675?api_key=iIulBulltgU6a56xZRHN4H3l9WmuAYTsLGpBGhQ2"
    },
    "id": "3826675",
    "neo_reference_id": "3826675",
    "name": "(2018 PO9)",
    "designation": "2018 PO9",
    "nasa_jpl_url": "http://ssd.jpl.nasa.gov/sbdb.cgi?sstr=3826675",
    "absolute_magnitude_h": 23.8,
    "estimated_diameter": {
        "kilometers": {
            "estimated_diameter_min": 0.046190746,
            "estimated_diameter_max": 0.1032856481
        },
        "meters": {
            "estimated_diameter_min": 46.1907460282,
            "estimated_diameter_max": 103.2856480504
        },
        "miles": {
            "estimated_diameter_min": 0.0287015901,
            "estimated_diameter_max": 0.0641787064
        },
        "feet": {
            "estimated_diameter_min": 151.544447199,
            "estimated_diameter_max": 338.8636855496
        }
    },
    "is_potentially_hazardous_asteroid": false,
    "close_approach_data": [
        {
            "close_approach_date": "2018-07-27",
            "close_approach_date_full": "2018-Jul-27 05:42",
            "epoch_date_close_approach": 1532670120000,
            "relative_velocity": {
                "kilometers_per_second": "7.2624368839",
                "kilometers_per_hour": "26144.772781924",
                "miles_per_hour": "16245.3450655238"
            },
            "miss_distance": {
                "astronomical": "0.1766421226",
                "lunar": "68.7137856914",
                "kilometers": "26425285.293238862",
                "miles": "16419910.8798338156"
            },
            "orbiting_body": "Earth"
        },
        {
            "close_approach_date": "2021-09-02",
            "close_approach_date_full": "2021-Sep-02 11:42",
            "epoch_date_close_approach": 1630582920000,
            "relative_velocity": {
                "kilometers_per_second": "15.4304651012",
                "kilometers_per_hour": "55549.6743641544",
                "miles_per_hour": "34516.4073847714"
            },
            "miss_distance": {
                "astronomical": "0.4702118482",
                "lunar": "182.9124089498",
                "kilometers": "70342690.939483334",
                "miles": "43708921.3401806492"
            },
            "orbiting_body": "Earth"
        },
        {
            "close_approach_date": "2154-07-14",
            "close_approach_date_full": "2154-Jul-14 19:41",
            "epoch_date_close_approach": 5823344460000,
            "relative_velocity": {
                "kilometers_per_second": "12.8151042443",
                "kilometers_per_hour": "46134.3752796154",
                "miles_per_hour": "28666.1066841588"
            },
            "miss_distance": {
                "astronomical": "0.3877216971",
                "lunar": "150.8237401719",
                "kilometers": "58002340.038945177",
                "miles": "36040982.8576183626"
            },
            "orbiting_body": "Earth"
        },
        {
            "close_approach_date": "2157-08-23",
            "close_approach_date_full": "2157-Aug-23 03:56",
            "epoch_date_close_approach": 5921438160000,
            "relative_velocity": {
                "kilometers_per_second": "9.5697138931",
                "kilometers_per_hour": "34450.970015028",
                "miles_per_hour": "21406.4930073933"
            },
            "miss_distance": {
                "astronomical": "0.2582874273",
                "lunar": "100.4738092197",
                "kilometers": "38639248.971859851",
                "miles": "24009315.9843379038"
            },
            "orbiting_body": "Earth"
        }
    ],
    "orbital_data": {
        "orbit_id": "4",
        "orbit_determination_date": "2019-01-14 07:16:41",
        "first_observation_date": "2018-08-07",
        "last_observation_date": "2018-09-06",
        "data_arc_in_days": 30,
        "observations_used": 22,
        "orbit_uncertainty": "7",
        "minimum_orbit_intersection": ".122076",
        "jupiter_tisserand_invariant": "3.574",
        "epoch_osculation": "2459000.5",
        "eccentricity": ".4644821466470387",
        "semi_major_axis": "2.120923653780211",
        "inclination": "7.698974229567115",
        "ascending_node_longitude": "135.8756065237706",
        "orbital_period": "1128.19970108739",
        "perihelion_distance": "1.135792482197898",
        "perihelion_argument": "176.8938103982939",
        "aphelion_distance": "3.106054825362524",
        "perihelion_time": "2459457.239324142145",
        "mean_anomaly": "214.2579327643025",
        "mean_motion": ".3190924440531424",
        "equinox": "J2000",
        "orbit_class": {
            "orbit_class_type": "AMO",
            "orbit_class_description": "Near-Earth asteroid orbits similar to that of 1221 Amor",
            "orbit_class_range": "1.017 AU < q (perihelion) < 1.3 AU"
        }
    },
    "is_sentry_object": false
}